{"type": "FeatureCollection", "features": [ {"type": "Feature", "properties": {"norad_id": 66464, "name": "STARLINK-35435", "group": "last-30-days", "lat": -42.68715116177229, "lon": -25.32818737140583, "alt_km": 446.0994616913358, "timestamp": "2025-12-12T11:38:30.168654+00:00", "meta": {"OBJECT_NAME": "STARLINK-35435", "OBJECT_ID": "2025-262J", "EPOCH": "2025-12-12T04:00:01.998720", "MEAN_MOTION": 15.40628216, "ECCENTRICITY": 0.000197, "INCLINATION": 43.0005, "RA_OF_ASC_NODE": 74.7002, "ARG_OF_PERICENTER": 262.4194, "MEAN_ANOMALY": 33.5976, "EPHEMERIS_TYPE": 0, "CLASSIFICATION_TYPE": "U", "NORAD_CAT_ID": 66464, "ELEMENT_SET_NO": 999, "REV_AT_EPOCH": 554, "BSTAR": 0.0022644, "MEAN_MOTION_DOT": 0.0009525, "MEAN_MOTION_DDOT": 0}, "tle": {"line1": "1 66464U 25262J   25346.16668980  .00095250  00000+0  22644-2 0  9997", "line2": "2 66464  43.0005  74.7002 0001970 262.4194  33.5976 15.40628216  5547"}}, "geometry": {"type": "Point", "coordinates": [-25.32818737140583, -42.68715116177229]}}, {"type": "Feature", "properties": {"norad_id": 66465, "name": "STARLINK-35448", "group": "last-30-days", "lat": -35.65068935018987, "lon": 22.447134631326364, "alt_km": 446.22389320306866, "timestamp": "2025-12-12T11:38:30.168665+00:00", "meta": {"OBJECT_NAME": "STARLINK-35448", "OBJECT_ID": "2025-262K", "EPOCH": "2025-12-12T04:00:01.998720", "MEAN_MOTION": 15.40639428, "ECCENTRICITY": 0.0001356, "INCLINATION": 43.0006, "RA_OF_ASC_NODE": 74.6097, "ARG_OF_PERICENTER": 271.0687, "MEAN_ANOMALY": 62.238, "EPHEMERIS_TYPE": 0, "CLASSIFICATION_TYPE": "U", "NORAD_CAT_ID": 66465, "ELEMENT_SET_NO": 999, "REV_AT_EPOCH": 554, "BSTAR": 0.0028331, "MEAN_MOTION_DOT": 0.00119673, "MEAN_MOTION_DDOT": 0}, "tle": {"line1": "1 66465U 25262K   25346.16668980  .00119673  00000+0  28331-2 0  9993", "line2": "2 66465  43.0006  74.6097 0001356 271.0687  62.2380 15.40639428  5548"}}, "geometry": {"type": "Point", "coordinates": [22.447134631326364, -35.65068935018987]}}, {"type": "Feature", "properties": {"norad_id": 66466, "name": "STARLINK-35388", "group": "last-30-days", "lat": -29.520091720302382, "lon": 35.3235821539625, "alt_km": 446.1188054433487, "timestamp": "2025-12-12T11:38:30.168676+00:00", "meta": {"OBJECT_NAME": "STARLINK-35388", "OBJECT_ID": "2025-262L", "EPOCH": "2025-12-12T04:00:01.998720", "MEAN_MOTION": 15.40616392, "ECCENTRICITY": 0.0001368, "INCLINATION": 43.0008, "RA_OF_ASC_NODE": 74.5767, "ARG_OF_PERICENTER": 266.9549, "MEAN_ANOMALY": 78.8671, "EPHEMERIS_TYPE": 0, "CLASSIFICATION_TYPE": "U", "NORAD_CAT_ID": 66466, "ELEMENT_SET_NO": 999, "REV_AT_EPOCH": 554, "BSTAR": 0.0023564, "MEAN_MOTION_DOT": 0.0009914, "MEAN_MOTION_DDOT": 0}, "tle": {"line1": "1 66466U 25262L   25346.16668980  .00099140  00000+0  23564-2 0  9993", "line2": "2 66466  43.0008  74.5767 0001368 266.9549  78.8671 15.40616392  5548"}}, "geometry": {"type": "Point", "coordinates": [35.3235821539625, -29.520091720302382]}}, {"type": "Feature", "properties": {"norad_id": 66467, "name": "STARLINK-35682", "group": "last-30-days", "lat": -40.168600447820474, "lon": 7.868061156731305, "alt_km": 446.4243778601476, "timestamp": "2025-12-12T11:38:30.168687+00:00", "meta": {"OBJECT_NAME": "STARLINK-35682", "OBJECT_ID": "2025-262M", "EPOCH": "2025-12-12T04:00:01.998720", "MEAN_MOTION": 15.40647892, "ECCENTRICITY": 0.0001688, "INCLINATION": 43.0007, "RA_OF_ASC_NODE": 74.6391, "ARG_OF_PERICENTER": 245.0956, "MEAN_ANOMALY": 75.8277, "EPHEMERIS_TYPE": 0, "CLASSIFICATION_TYPE": "U", "NORAD_CAT_ID": 66467, "ELEMENT_SET_NO": 999, "REV_AT_EPOCH": 554, "BSTAR": 0.0021646, "MEAN_MOTION_DOT": 0.00091044, "MEAN_MOTION_DDOT": 0}, "tle": {"line1": "1 66467U 25262M   25346.16668980  .00091044  00000+0  21646-2 0  9998", "line2": "2 66467  43.0007  74.6391 0001688 245.0956  75.8277 15.40647892  5545"}}, "geometry": {"type": "Point", "coordinates": [7.868061156731305, -40.168600447820474]}}, {"type": "Feature", "properties": {"norad_id": 66468, "name": "STARLINK-35331", "group": "last-30-days", "lat": -22.32501035554694, "lon": 46.56559532865795, "alt_km": 445.21218984428106, "timestamp": "2025-12-12T11:38:30.168700+00:00", "meta": {"OBJECT_NAME": "STARLINK-35331", "OBJECT_ID": "2025-262N", "EPOCH": "2025-12-12T04:00:01.998720", "MEAN_MOTION": 15.40634741, "ECCENTRICITY": 0.0001739, "INCLINATION": 43.0003, "RA_OF_ASC_NODE": 74.547, "ARG_OF_PERICENTER": 285.7023, "MEAN_ANOMALY": 72.5166, "EPHEMERIS_TYPE": 0, "CLASSIFICATION_TYPE": "U", "NORAD_CAT_ID": 66468, "ELEMENT_SET_NO": 999, "REV_AT_EPOCH": 554, "BSTAR": 0.0031368, "MEAN_MOTION_DOT": 0.00132744, "MEAN_MOTION_DDOT": 0}, "tle": {"line1": "1 66468U 25262N   25346.16668980  .00132744  00000+0  31368-2 0  9994", "line2": "2 66468  43.0003  74.5470 0001739 285.7023  72.5166 15.40634741  5542"}}, "geometry": {"type": "Point", "coordinates": [46.56559532865795, -22.32501035554694]}}, {"type": "Feature", "properties": {"norad_id": 66469, "name": "STARLINK-35451", "group": "last-30-days", "lat": 19.718273985101323, "lon": 95.17304114900122, "alt_km": 414.4465423556703, "timestamp": "2025-12-12T11:38:30.168711+00:00", "meta": {"OBJECT_NAME": "STARLINK-35451", "OBJECT_ID": "2025-262P", "EPOCH": "2025-12-10T16:12:32.558112", "MEAN_MOTION": 15.50219904, "ECCENTRICITY": 4.921e-05, "INCLINATION": 43.0005, "RA_OF_ASC_NODE": 83.1302, "ARG_OF_PERICENTER": 334.6757, "MEAN_ANOMALY": 25.4079, "EPHEMERIS_TYPE": 0, "CLASSIFICATION_TYPE": "U", "NORAD_CAT_ID": 66469, "ELEMENT_SET_NO": 999, "REV_AT_EPOCH": 524, "BSTAR": -0.0029160526, "MEAN_MOTION_DOT": -0.00165698, "MEAN_MOTION_DDOT": 0}, "tle": {"line1": "1 66469U 25262P   25344.67537683 -.00165698  00000+0 -29161-2 0  9998", "line2": "2 66469  43.0005  83.1302 0000492 334.6757  25.4079 15.50219904  5246"}}, "geometry": {"type": "Point", "coordinates": [95.17304114900122, 19.718273985101323]}}, {"type": "Feature", "properties": {"norad_id": 66470, "name": "STARLINK-35655", "group": "last-30-days", "lat": -14.406332516681122, "lon": 56.67975093078681, "alt_km": 445.12232128865435, "timestamp": "2025-12-12T11:38:30.168721+00:00", "meta": {"OBJECT_NAME": "STARLINK-35655", "OBJECT_ID": "2025-262Q", "EPOCH": "2025-12-12T04:00:01.998720", "MEAN_MOTION": 15.40619665, "ECCENTRICITY": 0.0001667, "INCLINATION": 43.0006, "RA_OF_ASC_NODE": 74.5157, "ARG_OF_PERICENTER": 267.9791, "MEAN_ANOMALY": 102.731, "EPHEMERIS_TYPE": 0, "CLASSIFICATION_TYPE": "U", "NORAD_CAT_ID": 66470, "ELEMENT_SET_NO": 999, "REV_AT_EPOCH": 554, "BSTAR": 0.0022435, "MEAN_MOTION_DOT": 0.00094328, "MEAN_MOTION_DDOT": 0}, "tle": {"line1": "1 66470U 25262Q   25346.16668980  .00094328  00000+0  22435-2 0  9997", "line2": "2 66470  43.0006  74.5157 0001667 267.9791 102.7310 15.40619665  5549"}}, "geometry": {"type": "Point", "coordinates": [56.67975093078681, -14.406332516681122]}}, {"type": "Feature", "properties": {"norad_id": 66471, "name": "STARLINK-35569", "group": "last-30-days", "lat": -6.0585446138146555, "lon": 66.11071064244024, "alt_km": 444.4666903338393, "timestamp": "2025-12-12T11:38:30.168732+00:00", "meta": {"OBJECT_NAME": "STARLINK-35569", "OBJECT_ID": "2025-262R", "EPOCH": "2025-12-12T04:00:01.998720", "MEAN_MOTION": 15.41594325, "ECCENTRICITY": 0.0001037, "INCLINATION": 43.0005, "RA_OF_ASC_NODE": 74.4871, "ARG_OF_PERICENTER": 268.8059, "MEAN_ANOMALY": 113.8349, "EPHEMERIS_TYPE": 0, "CLASSIFICATION_TYPE": "U", "NORAD_CAT_ID": 66471, "ELEMENT_SET_NO": 999, "REV_AT_EPOCH": 554, "BSTAR": -0.032785, "MEAN_MOTION_DOT": -0.01274695, "MEAN_MOTION_DDOT": 0}, "tle": {"line1": "1 66471U 25262R   25346.16668980 -.01274695  00000+0 -32785-1 0  9996", "line2": "2 66471  43.0005  74.4871 0001037 268.8059 113.8349 15.41594325  5540"}}, "geometry": {"type": "Point", "coordinates": [66.11071064244024, -6.0585446138146555]}}, {"type": "Feature", "properties": {"norad_id": 66472, "name": "STARLINK-35567", "group": "last-30-days", "lat": 9.276044429778997, "lon": 82.69033623722903, "alt_km": 435.80090752593605, "timestamp": "2025-12-12T11:38:30.168743+00:00", "meta": {"OBJECT_NAME": "STARLINK-35567", "OBJECT_ID": "2025-262S", "EPOCH": "2025-12-12T04:00:01.998720", "MEAN_MOTION": 15.4448857, "ECCENTRICITY": 0.0001318, "INCLINATION": 43.0001, "RA_OF_ASC_NODE": 74.4396, "ARG_OF_PERICENTER": 270.5602, "MEAN_ANOMALY": 131.6338, "EPHEMERIS_TYPE": 0, "CLASSIFICATION_TYPE": "U", "NORAD_CAT_ID": 66472, "ELEMENT_SET_NO": 999, "REV_AT_EPOCH": 554, "BSTAR": -0.047776, "MEAN_MOTION_DOT": -0.02018852, "MEAN_MOTION_DDOT": 0}, "tle": {"line1": "1 66472U 25262S   25346.16668980 -.02018852  00000+0 -47776-1 0  9995", "line2": "2 66472  43.0001  74.4396 0001318 270.5602 131.6338 15.44488570  5548"}}, "geometry": {"type": "Point", "coordinates": [82.69033623722903, 9.276044429778997]}}, {"type": "Feature", "properties": {"norad_id": 66473, "name": "STARLINK-35568", "group": "last-30-days", "lat": 25.21602404357391, "lon": 102.88684639804919, "alt_km": 411.99362598204334, "timestamp": "2025-12-12T11:38:30.168754+00:00", "meta": {"OBJECT_NAME": "STARLINK-35568", "OBJECT_ID": "2025-262T", "EPOCH": "2025-12-11T07:39:08.069760", "MEAN_MOTION": 15.50526439, "ECCENTRICITY": 0.00047596, "INCLINATION": 42.9998, "RA_OF_ASC_NODE": 79.3576, "ARG_OF_PERICENTER": 252.6139, "MEAN_ANOMALY": 107.4201, "EPHEMERIS_TYPE": 0, "CLASSIFICATION_TYPE": "U", "NORAD_CAT_ID": 66473, "ELEMENT_SET_NO": 999, "REV_AT_EPOCH": 534, "BSTAR": 0.0038259112, "MEAN_MOTION_DOT": 0.00230458, "MEAN_MOTION_DDOT": 0}, "tle": {"line1": "1 66473U 25262T   25345.31884340  .00230458  00000+0  38259-2 0  9993", "line2": "2 66473  42.9998  79.3576 0004759 252.6139 107.4201 15.50526439  5346"}}, "geometry": {"type": "Point", "coordinates": [102.88684639804919, 25.21602404357391]}}]}